[{"OBJECT_NAME":"ONEWEB-0049","OBJECT_ID":"2020-008Z","EPOCH":"2026-03-09T21:10:54.676128","MEAN_MOTION":13.10369947,"ECCENTRICITY":0.00017754,"INCLINATION":87.8767,"RA_OF_ASC_NODE":56.0489,"ARG_OF_PERICENTER":71.633,"MEAN_ANOMALY":288.4991,"EPHEMERIS_TYPE":0,"CLASSIFICATION_TYPE":"U","NORAD_CAT_ID":45154,"ELEMENT_SET_NO":999,"REV_AT_EPOCH":29502,"BSTAR":0.0013760027,"MEAN_MOTION_DOT":4.93e-6,"MEAN_MOTION_DDOT":0},{"OBJECT_NAME":"FENGYUN 1C DEB","OBJECT_ID":"1999-025DXN","EPOCH":"2026-03-08T03:45:32.732640","MEAN_MOTION":13.59419176,"ECCENTRICITY":0.02822489,"INCLINATION":98.4265,"RA_OF_ASC_NODE":198.9268,"ARG_OF_PERICENTER":315.4789,"MEAN_ANOMALY":42.3984,"EPHEMERIS_TYPE":0,"CLASSIFICATION_TYPE":"U","NORAD_CAT_ID":36644,"ELEMENT_SET_NO":999,"REV_AT_EPOCH":62728,"BSTAR":0.0015979913,"MEAN_MOTION_DOT":1.498e-5,"MEAN_MOTION_DDOT":0}]
